satname,norad_id,inclination_deg,eccentricity,mean_motion_rev_per_day,perigee_km,apogee_km,l1,l2
STARLINK-1460,45676,53.1594,0.0001223,15.30208274,474.35220292131817,476.028526794762,1 45676U 20035V   26079.91668981 -.00009447  00000+0 -30714-3 0  9993,2 45676  53.1594  12.7998 0001223 103.9081 356.4490 15.30208274  5797
STARLINK-1392,45677,53.156,0.000172,15.293591,476.54778700221686,478.906204216707,1 45677U 20035W   26079.11303920  .00000685  00000+0  36086-4 0  9997,2 45677  53.1560  16.4057 0001720  90.8791 269.2407 15.29359100320356
STARLINK-1394,45679,53.0494,0.0003657,15.51745967,409.14521054401666,414.1112448315471,1 45679U 20035Y   26079.44329736  .00060321  00000+0  99436-3 0  9998,2 45679  53.0494 344.8957 0003657 167.3807 192.7294 15.51745967320820
STARLINK-1402,45685,53.0481,0.0001854,15.46506304,425.69402460330093,428.21735297230316,1 45685U 20035AE  26078.99975734  .00068620  00000+0  13568-2 0  9990,2 45685  53.0481 334.2342 0001854 218.4703 141.6171 15.46506304320948
STARLINK-1404,45686,53.1609,0.000212,15.31126321,470.99831182099024,473.9029609788249,1 45686U 20035AF  26079.79669140  .00050681  00000+0  16632-2 0  9994,2 45686  53.1609 358.0816 0002120 110.7935 249.3293 15.31126321320672
STARLINK-1413,45689,53.1622,0.0001816,15.30198951,473.9736322414283,476.46277085062957,1 45689U 20035AJ  26079.47912077  .00000717  00000+0  36337-4 0  9993,2 45689  53.1622 359.4634 0001816  69.4198 290.6997 15.30198951320548
STARLINK-1417,45693,53.053,0.0001766,15.13203886,525.2174536156108,527.6561490822469,1 45693U 20035AN  26079.49801953  .00024332  00000+0  13668-2 0  9999,2 45693  53.0530   5.2955 0001766 256.4588 103.6207 15.13203886320538
STARLINK-1420,45695,53.0506,0.0004508,15.55812474,396.7364052351368,402.8473859273936,1 45695U 20035AQ  26079.86245939  .00074498  00000+0  10560-2 0  9994,2 45695  53.0506 328.4174 0004508 164.7128 195.4020 15.55812474321093
STARLINK-1422,45696,53.1623,9.92e-05,15.30210311,474.5044333335163,475.86413227602407,1 45696U 20035AR  26079.48647551 -.00001519  00000+0 -39169-4 0  9993,2 45696  53.1623 359.4323 0000992 115.2649 244.8455 15.30210311320621
STARLINK-1351,45697,53.0515,0.0004207,15.54415819,400.9981207679002,406.70448572625264,1 45697U 20035AS  26079.39861664  .00074677  00000+0  11141-2 0  9998,2 45697  53.0515 329.9728 0004207 174.0474 186.0586 15.54415819321038
STARLINK-1398,45699,53.03,0.000714,16.06654867,251.2989899262684,260.772588669387,1 45699U 20035AU  26079.69177282  .00653825  22448-3  83816-3 0  9990,2 45699  53.0300 242.2473 0007140 292.2629  67.7646 16.06654867322286
STARLINK-1400,45700,53.0503,0.0007636,15.52450955,404.38943045119777,414.7556204384564,1 45700U 20035AV  26079.83169201  .00078173  00000+0  12504-2 0  9999,2 45700  53.0503 329.3696 0007636 139.8313 220.3262 15.52450955321073
STARLINK-1403,45701,53.1556,0.0001865,15.29353656,476.4646436895282,479.021887028508,1 45701U 20035AW  26079.44757173 -.00000688  00000+0 -11514-4 0  9998,2 45701  53.1556 346.6091 0001865  83.3578 276.7635 15.29353656320799
STARLINK-1407,45703,53.0324,0.0007924,15.62298415,375.6637169966589,386.3756284916235,1 45703U 20035AY  26078.74954804  .00099933  00000+0  11018-2 0  9998,2 45703  53.0324 266.6596 0007924 143.9295 216.2254 15.62298415321868
STARLINK-1411,45706,53.0427,0.0004006,15.6415159,372.97429801427825,378.3854560961754,1 45706U 20035BB  26079.30642318  .00074601  00000+0  76953-3 0  9993,2 45706  53.0427 289.4660 0004006 180.0869 180.0145 15.64151590321587
STARLINK-1423,45710,53.0499,0.0007552,15.5496836,397.1240603169608,407.36514869240455,1 45710U 20035BF  26079.71787192  .00100667  00000+0  14635-2 0  9993,2 45710  53.0499 328.7776 0007552 154.3630 205.7755 15.54968360321060
STARLINK-1433,45711,53.0495,0.0007509,15.56985483,391.300219257093,401.47419971490035,1 45711U 20035BG  26079.85696333  .00076745  00000+0  10403-2 0  9993,2 45711  53.0495 326.9866 0007509 147.8311 212.3159 15.56985483321106
STARLINK-1434,45712,53.0543,0.0005269,15.27739962,478.9552474599632,486.18506065891233,1 45712U 20035BH  26079.69296396  .00016321  00000+0  60555-3 0  9999,2 45712  53.0543 329.0253 0005269 132.8726 227.2716 15.27739962321077
STARLINK-1465,45731,53.0511,0.0004816,15.51781114,408.25580274420463,414.7956058609898,1 45731U 20038B   26079.66410910  .00086065  00000+0  14089-2 0  9992,2 45731  53.0511 170.4289 0004816 330.6197  29.4540 15.51781114318084
STARLINK-1471,45735,53.0457,0.0001281,15.49442333,417.48572115817933,419.22698275495077,1 45735U 20038F   26079.74247872  .00024621  00000+0  44721-3 0  9997,2 45735  53.0457  89.0454 0001281 351.5260   8.5725 15.49442333319248
STARLINK-1480,45741,53.0536,8.81e-05,15.49093118,418.7788834597741,419.97660555775565,1 45741U 20038M   26079.31850691  .00173634  00000+0  30841-2 0  9992,2 45741  53.0536 166.3993 0000881 269.3316  90.7591 15.49093118318126
STARLINK-1500,45744,53.0363,0.0002338,15.35350592,458.2806100720845,461.47806651186875,1 45744U 20038Q   26079.41992698  .00014156  00000+0  41657-3 0  9991,2 45744  53.0363 142.3938 0002338 328.1716  31.9144 15.35350592318462
STARLINK-1504,45746,53.0216,7.87e-05,15.53846675,404.9734035039428,406.0411491130335,1 45746U 20038S   26079.75175183  .00034084  00000+0  52588-3 0  9999,2 45746  53.0216  88.7868 0000787  28.4581 331.6471 15.53846675319233
STARLINK-1506,45747,53.0768,0.0002461,15.26453831,484.73395592096676,488.11269251254635,1 45747U 20038T   26079.39876140  .00006380  00000+0  25440-3 0  9996,2 45747  53.0768 152.8179 0002461 297.7777  62.2971 15.26453831318322
STARLINK-1464,45751,53.0507,0.0003375,15.45045283,428.946853827405,433.54318669108125,1 45751U 20038X   26079.50193157  .00035680  00000+0  74901-3 0  9995,2 45751  53.0507 153.1604 0003375 329.2920  30.7888 15.45045283318327
STARLINK-1477,45754,53.05,0.0002226,15.15064637,519.2466351678077,522.3180340555773,1 45754U 20038AA  26079.65199624  .00025101  00000+0  13376-2 0  9994,2 45754  53.0500 163.1094 0002226  25.2791 334.8310 15.15064637318194
STARLINK-1478,45755,53.05,0.0003766,15.57161743,393.3248868534056,398.42707343004804,1 45755U 20038AB  26079.87207950  .00090144  00000+0  12118-2 0  9993,2 45755  53.0500 143.7303 0003766 324.1338  35.9420 15.57161743318474
STARLINK-1484,45756,52.9914,0.0004859,16.26595893,198.50677313440156,204.90106253835438,1 45756U 20038AC  26079.73801481  .02684582  11984-4  78205-3 0  9993,2 45756  52.9914 358.3321 0004859 224.2056 135.8596 16.26595893320489
STARLINK-1493,45759,53.0517,0.0003855,15.52108259,407.95456464650033,413.1886589862106,1 45759U 20038AF  26079.66026280  .00096074  00000+0  15518-2 0  9994,2 45759  53.0517 151.7635 0003855  38.5792 321.5491 15.52108259318348
STARLINK-1494,45760,53.0471,0.0006596,15.7577963,337.98069327259964,346.8464435824699,1 45760U 20038AG  26079.34916952  .00074692  00000+0  47519-3 0  9994,2 45760  53.0471  98.5356 0006596  40.7583 319.3928 15.75779630319078
STARLINK-1502,45764,53.0522,0.0005135,15.48836549,416.6374990729046,423.6193176472898,1 45764U 20038AL  26079.46801646  .00052658  00000+0  96385-3 0  9997,2 45764  53.0522 154.4764 0005135  26.8456 333.2816 15.48836549318305
STARLINK-1470,45772,53.0455,0.0002521,15.28910548,477.33914496383204,480.79654764733914,1 45772U 20038AU  26079.52826262  .00035300  00000+0  12466-2 0  9996,2 45772  53.0455 123.9710 0002521  32.0693 328.0459 15.28910548318731
STARLINK-1482,45773,53.1581,0.0001512,15.3084191,472.2631744863138,474.3350487664693,1 45773U 20038AV  26079.58681649  .00047229  00000+0  15652-2 0  9994,2 45773  53.1581 140.3841 0001512  55.1453 304.9690 15.30841910318515
STARLINK-1496,45780,53.05,0.0001965,15.5000561,415.3744865479821,418.04486129083216,1 45780U 20038BC  26079.54449307  .00085271  00000+0  14874-2 0  9995,2 45780  53.0500 125.8006 0001965 283.3152  76.7636 15.50005610318691
STARLINK-1513,45786,53.1589,0.0001222,15.30202264,474.3708307349234,476.0457883285726,1 45786U 20038BJ  26079.85932735  .00002880  00000+0  10930-3 0  9992,2 45786  53.1589 139.2702 0001222  74.1602 285.9533 15.30202264318556
STARLINK-1522,46027,53.0638,0.0002249,15.09522302,536.1032878519818,539.2140127354842,1 46027U 20055A   26079.27670187  .00016372  00000+0  10250-2 0  9991,2 46027  53.0638  78.7479 0002249  78.4110 281.7133 15.09522302310486
STARLINK-1523,46028,53.155,0.0001593,15.29358205,476.63753080819697,478.8218099293754,1 46028U 20055B   26079.91668981  .00063468  00000+0  21929-2 0  9995,2 46028  53.1550  74.5093 0001593  89.7590  98.5089 15.29358205  5627
STARLINK-1526,46029,53.1556,0.0001542,15.29345809,476.70953644772635,478.8238971539877,1 46029U 20055C   26079.91668981  .00063724  00000+0  22024-2 0  9998,2 46029  53.1556  74.4738 0001542  97.6237 150.2160 15.29345809  5733
STARLINK-1555,46032,53.1647,0.0001576,15.29253305,476.96265416857386,479.12372216388485,1 46032U 20055F   26079.91668981  .00557276  00000+0  18181-1 0  9990,2 46032  53.1647  74.5485 0001576 101.6478 185.3336 15.29253305  5584
STARLINK-1556,46033,53.156,0.0002039,15.29355335,476.34033458459,479.1361605105403,1 46033U 20055G   26079.91668981  .00063929  00000+0  22087-2 0  9999,2 46033  53.1560  74.4296 0002039  75.3638  15.8257 15.29355335  5684
STARLINK-1557,46034,53.1557,0.0001903,15.29352944,476.4407188052264,479.0500676440888,1 46034U 20055H   26079.37111510  .00001312  00000+0  57822-4 0  9996,2 46034  53.1557  76.8603 0001903  81.1260 278.9955 15.29352944310504
STARLINK-1558,46035,53.158,0.0001258,15.29354969,476.8768721201877,478.60181060767445,1 46035U 20055J   26079.26599985  .00002674  00000+0  10497-3 0  9999,2 46035  53.1580  77.5344 0001258  85.5195 274.5949 15.29354969310514
STARLINK-1560,46036,53.1566,0.0001835,15.29356292,476.4773349056986,478.99344007190666,1 46036U 20055K   26079.69463075 -.00000523  00000+0 -57715-5 0  9996,2 46036  53.1566  75.3990 0001835  85.9630 274.1580 15.29356292310586
